{
  "type": "FeatureCollection",
  "features": [
    {
      "type": "Feature",
      "properties": {
        "id": "left-travel",
        "kind": "travel",
        "scenarioId": "existing",
        "sourceQuality": "synthetic"
      },
      "geometry": {
        "type": "Polygon",
        "coordinates": [
          [
            [
              -79.69544528363757,
              44.3358178522551
            ],
            [
              -79.6934387943916,
              44.335794915392235
            ],
            [
              -79.6934381547432,
              44.33582371741964
            ],
            [
              -79.69544464497082,
              44.33584665430543
            ],
            [
              -79.69544528363757,
              44.3358178522551
            ]
          ]
        ]
      }
    },
    {
      "type": "Feature",
      "properties": {
        "id": "left-parking",
        "kind": "parking",
        "scenarioId": "existing",
        "sourceQuality": "synthetic"
      },
      "geometry": {
        "type": "Polygon",
        "coordinates": [
          [
            [
              -79.69544464497082,
              44.33584665430543
            ],
            [
              -79.6934381547432,
              44.33582371741964
            ],
            [
              -79.69343767500628,
              44.33584531894011
            ],
            [
              -79.69544416597013,
              44.33586825584307
            ],
            [
              -79.69544464497082,
              44.33584665430543
            ]
          ]
        ]
      }
    },
    {
      "type": "Feature",
      "properties": {
        "id": "left-planting",
        "kind": "planting",
        "scenarioId": "existing",
        "sourceQuality": "synthetic"
      },
      "geometry": {
        "type": "Polygon",
        "coordinates": [
          [
            [
              -79.69544416597013,
              44.33586825584307
            ],
            [
              -79.69343767500628,
              44.33584531894011
            ],
            [
              -79.69343747511574,
              44.3358543195736
            ],
            [
              -79.69544396638635,
              44.33587725648373
            ],
            [
              -79.69544416597013,
              44.33586825584307
            ]
          ]
        ]
      }
    },
    {
      "type": "Feature",
      "properties": {
        "id": "left-sidewalk",
        "kind": "sidewalk",
        "scenarioId": "existing",
        "sourceQuality": "synthetic"
      },
      "geometry": {
        "type": "Polygon",
        "coordinates": [
          [
            [
              -79.69544396638635,
              44.33587725648373
            ],
            [
              -79.69343747511574,
              44.3358543195736
            ],
            [
              -79.69343707533439,
              44.33587232084055
            ],
            [
              -79.69544356721852,
              44.335895257765
            ],
            [
              -79.69544396638635,
              44.33587725648373
            ]
          ]
        ]
      }
    },
    {
      "type": "Feature",
      "properties": {
        "id": "right-travel",
        "kind": "travel",
        "scenarioId": "existing",
        "sourceQuality": "synthetic"
      },
      "geometry": {
        "type": "Polygon",
        "coordinates": [
          [
            [
              -79.69544528363757,
              44.3358178522551
            ],
            [
              -79.6934387943916,
              44.335794915392235
            ],
            [
              -79.69343943403902,
              44.33576611336467
            ],
            [
              -79.69544592230338,
              44.33578905020463
            ],
            [
              -79.69544528363757,
              44.3358178522551
            ]
          ]
        ]
      }
    },
    {
      "type": "Feature",
      "properties": {
        "id": "right-parking",
        "kind": "parking",
        "scenarioId": "existing",
        "sourceQuality": "synthetic"
      },
      "geometry": {
        "type": "Polygon",
        "coordinates": [
          [
            [
              -79.69544592230338,
              44.33578905020463
            ],
            [
              -79.69343943403902,
              44.33576611336467
            ],
            [
              -79.69343991377396,
              44.33574451184391
            ],
            [
              -79.69544640130209,
              44.335767448666694
            ],
            [
              -79.69544592230338,
              44.33578905020463
            ]
          ]
        ]
      }
    },
    {
      "type": "Feature",
      "properties": {
        "id": "right-planting",
        "kind": "planting",
        "scenarioId": "existing",
        "sourceQuality": "synthetic"
      },
      "geometry": {
        "type": "Polygon",
        "coordinates": [
          [
            [
              -79.69544640130209,
              44.335767448666694
            ],
            [
              -79.69343991377396,
              44.33574451184391
            ],
            [
              -79.69344011366334,
              44.335735511210224
            ],
            [
              -79.69544660088475,
              44.335758448025835
            ],
            [
              -79.69544640130209,
              44.335767448666694
            ]
          ]
        ]
      }
    },
    {
      "type": "Feature",
      "properties": {
        "id": "right-sidewalk",
        "kind": "sidewalk",
        "scenarioId": "existing",
        "sourceQuality": "synthetic"
      },
      "geometry": {
        "type": "Polygon",
        "coordinates": [
          [
            [
              -79.69544660088475,
              44.335758448025835
            ],
            [
              -79.69344011366334,
              44.335735511210224
            ],
            [
              -79.69344051344189,
              44.33571750994282
            ],
            [
              -79.69544700004975,
              44.33574044674412
            ],
            [
              -79.69544660088475,
              44.335758448025835
            ]
          ]
        ]
      }
    },
    {
      "type": "Feature",
      "properties": {
        "id": "crossing-1-stripe-0",
        "kind": "marking",
        "scenarioId": "existing"
      },
      "geometry": {
        "type": "Polygon",
        "coordinates": [
          [
            [
              -79.69446249735304,
              44.33573234800199
            ],
            [
              -79.69442487572714,
              44.33573191793691
            ],
            [
              -79.69442478584473,
              44.335735968223666
            ],
            [
              -79.69446240747321,
              44.33573639828879
            ],
            [
              -79.69446249735304,
              44.33573234800199
            ]
          ]
        ]
      }
    },
    {
      "type": "Feature",
      "properties": {
        "id": "crossing-1-stripe-1",
        "kind": "marking",
        "scenarioId": "existing"
      },
      "geometry": {
        "type": "Polygon",
        "coordinates": [
          [
            [
              -79.69446231759336,
              44.335740448575606
            ],
            [
              -79.69442469596227,
              44.335740018510414
            ],
            [
              -79.6944246060798,
              44.33574406879715
            ],
            [
              -79.69446222771349,
              44.3357444988624
            ],
            [
              -79.69446231759336,
              44.335740448575606
            ]
          ]
        ]
      }
    },
    {
      "type": "Feature",
      "properties": {
        "id": "crossing-1-stripe-2",
        "kind": "marking",
        "scenarioId": "existing"
      },
      "geometry": {
        "type": "Polygon",
        "coordinates": [
          [
            [
              -79.6944621378336,
              44.33574854914921
            ],
            [
              -79.69442451619733,
              44.33574811908389
            ],
            [
              -79.69442442631484,
              44.335752169370636
            ],
            [
              -79.69446204795369,
              44.33575259943601
            ],
            [
              -79.6944621378336,
              44.33574854914921
            ]
          ]
        ]
      }
    },
    {
      "type": "Feature",
      "properties": {
        "id": "crossing-1-stripe-3",
        "kind": "marking",
        "scenarioId": "existing"
      },
      "geometry": {
        "type": "Polygon",
        "coordinates": [
          [
            [
              -79.69446195807376,
              44.3357566497228
            ],
            [
              -79.69442433643232,
              44.33575621965736
            ],
            [
              -79.69442424654977,
              44.3357602699441
            ],
            [
              -79.69446186819381,
              44.3357607000096
            ],
            [
              -79.69446195807376,
              44.3357566497228
            ]
          ]
        ]
      }
    },
    {
      "type": "Feature",
      "properties": {
        "id": "crossing-1-stripe-4",
        "kind": "marking",
        "scenarioId": "existing"
      },
      "geometry": {
        "type": "Polygon",
        "coordinates": [
          [
            [
              -79.69446177831384,
              44.33576475029637
            ],
            [
              -79.69442415666722,
              44.33576432023084
            ],
            [
              -79.69442406678465,
              44.335768370517556
            ],
            [
              -79.69446168843386,
              44.335768800583175
            ],
            [
              -79.69446177831384,
              44.33576475029637
            ]
          ]
        ]
      }
    },
    {
      "type": "Feature",
      "properties": {
        "id": "crossing-1-stripe-5",
        "kind": "marking",
        "scenarioId": "existing"
      },
      "geometry": {
        "type": "Polygon",
        "coordinates": [
          [
            [
              -79.69446159855384,
              44.33577285086996
            ],
            [
              -79.69442397690206,
              44.335772420804275
            ],
            [
              -79.69442388701945,
              44.335776471090995
            ],
            [
              -79.69446150867383,
              44.33577690115674
            ],
            [
              -79.69446159855384,
              44.33577285086996
            ]
          ]
        ]
      }
    },
    {
      "type": "Feature",
      "properties": {
        "id": "crossing-1-stripe-6",
        "kind": "marking",
        "scenarioId": "existing"
      },
      "geometry": {
        "type": "Polygon",
        "coordinates": [
          [
            [
              -79.69446141879378,
              44.33578095144352
            ],
            [
              -79.6944237971368,
              44.33578052137772
            ],
            [
              -79.69442370725416,
              44.33578457166443
            ],
            [
              -79.69446132891373,
              44.335785001730294
            ],
            [
              -79.69446141879378,
              44.33578095144352
            ]
          ]
        ]
      }
    },
    {
      "type": "Feature",
      "properties": {
        "id": "crossing-1-stripe-7",
        "kind": "marking",
        "scenarioId": "existing"
      },
      "geometry": {
        "type": "Polygon",
        "coordinates": [
          [
            [
              -79.69446123903364,
              44.335789052017056
            ],
            [
              -79.6944236173715,
              44.33578862195113
            ],
            [
              -79.6944235274888,
              44.33579267223786
            ],
            [
              -79.69446114915354,
              44.335793102303825
            ],
            [
              -79.69446123903364,
              44.335789052017056
            ]
          ]
        ]
      }
    },
    {
      "type": "Feature",
      "properties": {
        "id": "crossing-1-stripe-8",
        "kind": "marking",
        "scenarioId": "existing"
      },
      "geometry": {
        "type": "Polygon",
        "coordinates": [
          [
            [
              -79.69446105927341,
              44.33579715259059
            ],
            [
              -79.6944234376061,
              44.33579672252457
            ],
            [
              -79.69442334772336,
              44.33580077281126
            ],
            [
              -79.69446096939328,
              44.33580120287736
            ],
            [
              -79.69446105927341,
              44.33579715259059
            ]
          ]
        ]
      }
    },
    {
      "type": "Feature",
      "properties": {
        "id": "crossing-1-stripe-9",
        "kind": "marking",
        "scenarioId": "existing"
      },
      "geometry": {
        "type": "Polygon",
        "coordinates": [
          [
            [
              -79.69446087951312,
              44.33580525316412
            ],
            [
              -79.69442325784063,
              44.33580482309795
            ],
            [
              -79.69442316795786,
              44.33580887338465
            ],
            [
              -79.69446078963296,
              44.33580930345087
            ],
            [
              -79.69446087951312,
              44.33580525316412
            ]
          ]
        ]
      }
    },
    {
      "type": "Feature",
      "properties": {
        "id": "crossing-1-stripe-10",
        "kind": "marking",
        "scenarioId": "existing"
      },
      "geometry": {
        "type": "Polygon",
        "coordinates": [
          [
            [
              -79.69446069975277,
              44.335813353737635
            ],
            [
              -79.69442307807508,
              44.335812923671355
            ],
            [
              -79.69442298819229,
              44.33581697395803
            ],
            [
              -79.69446060987255,
              44.335817404024375
            ],
            [
              -79.69446069975277,
              44.335813353737635
            ]
          ]
        ]
      }
    },
    {
      "type": "Feature",
      "properties": {
        "id": "crossing-1-stripe-11",
        "kind": "marking",
        "scenarioId": "existing"
      },
      "geometry": {
        "type": "Polygon",
        "coordinates": [
          [
            [
              -79.69446051999232,
              44.33582145431114
            ],
            [
              -79.69442289830945,
              44.33582102424472
            ],
            [
              -79.69442280842662,
              44.33582507453141
            ],
            [
              -79.69446043011206,
              44.335825504597864
            ],
            [
              -79.69446051999232,
              44.33582145431114
            ]
          ]
        ]
      }
    },
    {
      "type": "Feature",
      "properties": {
        "id": "crossing-1-stripe-12",
        "kind": "marking",
        "scenarioId": "existing"
      },
      "geometry": {
        "type": "Polygon",
        "coordinates": [
          [
            [
              -79.69446034023179,
              44.33582955488462
            ],
            [
              -79.69442271854376,
              44.33582912481809
            ],
            [
              -79.69442262866087,
              44.33583317510476
            ],
            [
              -79.6944602503515,
              44.335833605171345
            ],
            [
              -79.69446034023179,
              44.33582955488462
            ]
          ]
        ]
      }
    },
    {
      "type": "Feature",
      "properties": {
        "id": "crossing-1-stripe-13",
        "kind": "marking",
        "scenarioId": "existing"
      },
      "geometry": {
        "type": "Polygon",
        "coordinates": [
          [
            [
              -79.69446016047121,
              44.33583765545808
            ],
            [
              -79.69442253877799,
              44.335837225391444
            ],
            [
              -79.69442244889507,
              44.33584127567812
            ],
            [
              -79.69446007059088,
              44.33584170574481
            ],
            [
              -79.69446016047121,
              44.33583765545808
            ]
          ]
        ]
      }
    },
    {
      "type": "Feature",
      "properties": {
        "id": "crossing-1-stripe-14",
        "kind": "marking",
        "scenarioId": "existing"
      },
      "geometry": {
        "type": "Polygon",
        "coordinates": [
          [
            [
              -79.69445998071053,
              44.335845756031546
            ],
            [
              -79.69442235901214,
              44.33584532596478
            ],
            [
              -79.69442226912919,
              44.33584937625145
            ],
            [
              -79.69445989083016,
              44.33584980631827
            ],
            [
              -79.69445998071053,
              44.335845756031546
            ]
          ]
        ]
      }
    },
    {
      "type": "Feature",
      "properties": {
        "id": "crossing-1-stripe-15",
        "kind": "marking",
        "scenarioId": "existing"
      },
      "geometry": {
        "type": "Polygon",
        "coordinates": [
          [
            [
              -79.69445980094977,
              44.335853856605006
            ],
            [
              -79.69442217924622,
              44.335853426538115
            ],
            [
              -79.69442208936323,
              44.33585747682478
            ],
            [
              -79.69445971106937,
              44.33585790689171
            ],
            [
              -79.69445980094977,
              44.335853856605006
            ]
          ]
        ]
      }
    },
    {
      "type": "Feature",
      "properties": {
        "id": "crossing-1-stripe-16",
        "kind": "marking",
        "scenarioId": "existing"
      },
      "geometry": {
        "type": "Polygon",
        "coordinates": [
          [
            [
              -79.69445962118894,
              44.335861957178444
            ],
            [
              -79.69442199948021,
              44.33586152711143
            ],
            [
              -79.69442190959718,
              44.335865577398074
            ],
            [
              -79.69445953130851,
              44.33586600746514
            ],
            [
              -79.69445962118894,
              44.335861957178444
            ]
          ]
        ]
      }
    },
    {
      "type": "Feature",
      "properties": {
        "id": "crossing-1-stripe-17",
        "kind": "marking",
        "scenarioId": "existing"
      },
      "geometry": {
        "type": "Polygon",
        "coordinates": [
          [
            [
              -79.69445944142807,
              44.33587005775186
            ],
            [
              -79.69442181971415,
              44.33586962768474
            ],
            [
              -79.69442172983108,
              44.33587367797138
            ],
            [
              -79.6944593515476,
              44.335874108038574
            ],
            [
              -79.69445944142807,
              44.33587005775186
            ]
          ]
        ]
      }
    },
    {
      "type": "Feature",
      "properties": {
        "id": "left-b2",
        "kind": "curb",
        "scenarioId": "existing"
      },
      "geometry": {
        "type": "LineString",
        "coordinates": [
          [
            -79.69544416597013,
            44.33586825584307
          ],
          [
            -79.69343767500628,
            44.33584531894011
          ]
        ]
      }
    },
    {
      "type": "Feature",
      "properties": {
        "id": "right-b2",
        "kind": "curb",
        "scenarioId": "existing"
      },
      "geometry": {
        "type": "LineString",
        "coordinates": [
          [
            -79.69544640130209,
            44.335767448666694
          ],
          [
            -79.69343991377396,
            44.33574451184391
          ]
        ]
      }
    },
    {
      "type": "Feature",
      "properties": {
        "id": "crossing-1",
        "kind": "crossing",
        "scenarioId": "existing"
      },
      "geometry": {
        "type": "Point",
        "coordinates": [
          -79.69444203871626,
          44.33580638822816
        ]
      }
    },
    {
      "type": "Feature",
      "properties": {
        "id": "stop-1",
        "kind": "stop",
        "scenarioId": "existing"
      },
      "geometry": {
        "type": "Point",
        "coordinates": [
          -79.69406470317611,
          44.33585249050739
        ]
      }
    },
    {
      "type": "Feature",
      "properties": {
        "id": "tree-1",
        "kind": "tree",
        "scenarioId": "existing"
      },
      "geometry": {
        "type": "Point",
        "coordinates": [
          -79.694942343345,
          44.33587152555958
        ]
      }
    }
  ]
}